ONEWEB-0018             
1 45434U 20020L   26105.27306856 -.00000159  00000+0 -48311-3 0  9991
2 45434  87.8906  33.5727 0002200  80.7876 279.3500 13.11414003294387
ONEWEB-0083             
1 45435U 20020M   26105.26375278  .00000256  00000+0  68723-3 0  9990
2 45435  87.8919  33.5644 0001912  76.6848 283.4493 13.11416354294425
ONEWEB-0095             
1 45436U 20020N   26105.25458787  .00000550  00000+0  15149-2 0  9997
2 45436  87.8926  33.5742 0001130  68.5797 291.5451 13.11417047294422
ONEWEB-0092             
1 45437U 20020P   26105.22643380 -.00000080  00000+0 -26227-3 0  9990
2 45437  87.8933  33.5800 0001531  82.8614 277.2688 13.11420892294535
ONEWEB-0085             
1 45438U 20020Q   26105.26290205  .00000225  00000+0  59958-3 0  9995
2 45438  87.8924  33.5761 0001819  79.3808 280.7525 13.11415090294428
ONEWEB-0096             
1 45439U 20020R   26105.26459990  .00000212  00000+0  56291-3 0  9997
2 45439  87.8933  33.5658 0001852  81.6769 278.4568 13.11416126294414
ONEWEB-0037             
1 45440U 20020S   26105.24509040  .00001995  00000+0  55918-2 0  9992
2 45440  87.8934  33.5478 0002297  78.2778 281.8607 13.11428509294446
ONEWEB-0042             
1 45441U 20020T   26105.25428953  .00000512  00000+0  14075-2 0  9990
2 45441  87.8927  33.5649 0001889  82.4066 277.7277 13.11415234294417
ONEWEB-0098             
1 45442U 20020U   26105.25018100  .00000596  00000+0  16469-2 0  9991
2 45442  87.8925  33.5762 0001910  76.9271 283.2070 13.11418742294390
ONEWEB-0055             
1 45443U 20020V   26105.23323491  .00000242  00000+0  64773-3 0  9992
2 45443  87.8928  33.5797 0001925  76.9911 283.1432 13.11418475294360
ONEWEB-0093             
1 45444U 20020W   26105.20878090 -.00000532  00000+0 -15378-2 0  9990
2 45444  87.8929  33.5741 0001940  91.7452 268.3899 13.11416604294424
ONEWEB-0029             
1 45445U 20020X   26105.22474994 -.00000171  00000+0 -51920-3 0  9991
2 45445  87.8918  33.5821 0001926  81.9046 278.2301 13.11418581294408
ONEWEB-0068             
1 45446U 20020Y   26105.20850485 -.00000466  00000+0 -13505-2 0  9996
2 45446  87.8926  33.5780 0001964  83.5512 276.5839 13.11416288294342
ONEWEB-0046             
1 45447U 20020Z   26105.20016309 -.00000316  00000+0 -92852-3 0  9993
2 45447  87.8922  33.5865 0001703  85.5325 274.5997 13.11414859294354
ONEWEB-0063             
1 45448U 20020AA  26105.22898845  .00000087  00000+0  20929-3 0  9998
2 45448  87.8927  33.5784 0001621  81.1203 279.0109 13.11418191294444
ONEWEB-0019             
1 45449U 20020AB  26105.26784973  .00000090  00000+0  21738-3 0  9992
2 45449  87.8919  33.5613 0001931  74.4023 285.7318 13.11414552294292
