[{"OBJECT_NAME":"ONEWEB-0018","OBJECT_ID":"2020-020L","EPOCH":"2026-04-15T06:33:13.123584","MEAN_MOTION":13.11414003,"ECCENTRICITY":0.00022,"INCLINATION":87.8906,"RA_OF_ASC_NODE":33.5727,"ARG_OF_PERICENTER":80.7876,"MEAN_ANOMALY":279.35,"EPHEMERIS_TYPE":0,"CLASSIFICATION_TYPE":"U","NORAD_CAT_ID":45434,"ELEMENT_SET_NO":999,"REV_AT_EPOCH":29438,"BSTAR":-0.00048311,"MEAN_MOTION_DOT":-1.59e-06,"MEAN_MOTION_DDOT":0.0},{"OBJECT_NAME":"ONEWEB-0083","OBJECT_ID":"2020-020M","EPOCH":"2026-04-15T06:19:48.240192","MEAN_MOTION":13.11416354,"ECCENTRICITY":0.0001912,"INCLINATION":87.8919,"RA_OF_ASC_NODE":33.5644,"ARG_OF_PERICENTER":76.6848,"MEAN_ANOMALY":283.4493,"EPHEMERIS_TYPE":0,"CLASSIFICATION_TYPE":"U","NORAD_CAT_ID":45435,"ELEMENT_SET_NO":999,"REV_AT_EPOCH":29442,"BSTAR":0.00068723,"MEAN_MOTION_DOT":2.56e-06,"MEAN_MOTION_DDOT":0.0},{"OBJECT_NAME":"ONEWEB-0095","OBJECT_ID":"2020-020N","EPOCH":"2026-04-15T06:06:36.391968","MEAN_MOTION":13.11417047,"ECCENTRICITY":0.000113,"INCLINATION":87.8926,"RA_OF_ASC_NODE":33.5742,"ARG_OF_PERICENTER":68.5797,"MEAN_ANOMALY":291.5451,"EPHEMERIS_TYPE":0,"CLASSIFICATION_TYPE":"U","NORAD_CAT_ID":45436,"ELEMENT_SET_NO":999,"REV_AT_EPOCH":29442,"BSTAR":0.0015149000000000002,"MEAN_MOTION_DOT":5.5e-06,"MEAN_MOTION_DDOT":0.0},{"OBJECT_NAME":"ONEWEB-0092","OBJECT_ID":"2020-020P","EPOCH":"2026-04-15T05:26:03.880320","MEAN_MOTION":13.11420892,"ECCENTRICITY":0.0001531,"INCLINATION":87.8933,"RA_OF_ASC_NODE":33.58,"ARG_OF_PERICENTER":82.8614,"MEAN_ANOMALY":277.2688,"EPHEMERIS_TYPE":0,"CLASSIFICATION_TYPE":"U","NORAD_CAT_ID":45437,"ELEMENT_SET_NO":999,"REV_AT_EPOCH":29453,"BSTAR":-0.00026227,"MEAN_MOTION_DOT":-8e-07,"MEAN_MOTION_DDOT":0.0},{"OBJECT_NAME":"ONEWEB-0085","OBJECT_ID":"2020-020Q","EPOCH":"2026-04-15T06:18:34.737120","MEAN_MOTION":13.1141509,"ECCENTRICITY":0.0001819,"INCLINATION":87.8924,"RA_OF_ASC_NODE":33.5761,"ARG_OF_PERICENTER":79.3808,"MEAN_ANOMALY":280.7525,"EPHEMERIS_TYPE":0,"CLASSIFICATION_TYPE":"U","NORAD_CAT_ID":45438,"ELEMENT_SET_NO":999,"REV_AT_EPOCH":29442,"BSTAR":0.0005995800000000001,"MEAN_MOTION_DOT":2.25e-06,"MEAN_MOTION_DDOT":0.0},{"OBJECT_NAME":"ONEWEB-0096","OBJECT_ID":"2020-020R","EPOCH":"2026-04-15T06:21:01.431360","MEAN_MOTION":13.11416126,"ECCENTRICITY":0.0001852,"INCLINATION":87.8933,"RA_OF_ASC_NODE":33.5658,"ARG_OF_PERICENTER":81.6769,"MEAN_ANOMALY":278.4568,"EPHEMERIS_TYPE":0,"CLASSIFICATION_TYPE":"U","NORAD_CAT_ID":45439,"ELEMENT_SET_NO":999,"REV_AT_EPOCH":29441,"BSTAR":0.00056291,"MEAN_MOTION_DOT":2.12e-06,"MEAN_MOTION_DDOT":0.0},{"OBJECT_NAME":"ONEWEB-0037","OBJECT_ID":"2020-020S","EPOCH":"2026-04-15T05:52:55.810560","MEAN_MOTION":13.11428509,"ECCENTRICITY":0.0002297,"INCLINATION":87.8934,"RA_OF_ASC_NODE":33.5478,"ARG_OF_PERICENTER":78.2778,"MEAN_ANOMALY":281.8607,"EPHEMERIS_TYPE":0,"CLASSIFICATION_TYPE":"U","NORAD_CAT_ID":45440,"ELEMENT_SET_NO":999,"REV_AT_EPOCH":29444,"BSTAR":0.0055918,"MEAN_MOTION_DOT":1.995e-05,"MEAN_MOTION_DDOT":0.0},{"OBJECT_NAME":"ONEWEB-0042","OBJECT_ID":"2020-020T","EPOCH":"2026-04-15T06:06:10.615392","MEAN_MOTION":13.11415234,"ECCENTRICITY":0.0001889,"INCLINATION":87.8927,"RA_OF_ASC_NODE":33.5649,"ARG_OF_PERICENTER":82.4066,"MEAN_ANOMALY":277.7277,"EPHEMERIS_TYPE":0,"CLASSIFICATION_TYPE":"U","NORAD_CAT_ID":45441,"ELEMENT_SET_NO":999,"REV_AT_EPOCH":29441,"BSTAR":0.0014075,"MEAN_MOTION_DOT":5.12e-06,"MEAN_MOTION_DDOT":0.0},{"OBJECT_NAME":"ONEWEB-0098","OBJECT_ID":"2020-020U","EPOCH":"2026-04-15T06:00:15.638400","MEAN_MOTION":13.11418742,"ECCENTRICITY":0.000191,"INCLINATION":87.8925,"RA_OF_ASC_NODE":33.5762,"ARG_OF_PERICENTER":76.9271,"MEAN_ANOMALY":283.207,"EPHEMERIS_TYPE":0,"CLASSIFICATION_TYPE":"U","NORAD_CAT_ID":45442,"ELEMENT_SET_NO":999,"REV_AT_EPOCH":29439,"BSTAR":0.0016469,"MEAN_MOTION_DOT":5.96e-06,"MEAN_MOTION_DDOT":0.0},{"OBJECT_NAME":"ONEWEB-0055","OBJECT_ID":"2020-020V","EPOCH":"2026-04-15T05:35:51.496224","MEAN_MOTION":13.11418475,"ECCENTRICITY":0.0001925,"INCLINATION":87.8928,"RA_OF_ASC_NODE":33.5797,"ARG_OF_PERICENTER":76.9911,"MEAN_ANOMALY":283.1432,"EPHEMERIS_TYPE":0,"CLASSIFICATION_TYPE":"U","NORAD_CAT_ID":45443,"ELEMENT_SET_NO":999,"REV_AT_EPOCH":29436,"BSTAR":0.00064773,"MEAN_MOTION_DOT":2.42e-06,"MEAN_MOTION_DDOT":0.0},{"OBJECT_NAME":"ONEWEB-0093","OBJECT_ID":"2020-020W","EPOCH":"2026-04-15T05:00:38.669760","MEAN_MOTION":13.11416604,"ECCENTRICITY":0.000194,"INCLINATION":87.8929,"RA_OF_ASC_NODE":33.5741,"ARG_OF_PERICENTER":91.7452,"MEAN_ANOMALY":268.3899,"EPHEMERIS_TYPE":0,"CLASSIFICATION_TYPE":"U","NORAD_CAT_ID":45444,"ELEMENT_SET_NO":999,"REV_AT_EPOCH":29442,"BSTAR":-0.0015378,"MEAN_MOTION_DOT":-5.32e-06,"MEAN_MOTION_DDOT":0.0},{"OBJECT_NAME":"ONEWEB-0029","OBJECT_ID":"2020-020X","EPOCH":"2026-04-15T05:23:38.394816","MEAN_MOTION":13.11418581,"ECCENTRICITY":0.0001926,"INCLINATION":87.8918,"RA_OF_ASC_NODE":33.5821,"ARG_OF_PERICENTER":81.9046,"MEAN_ANOMALY":278.2301,"EPHEMERIS_TYPE":0,"CLASSIFICATION_TYPE":"U","NORAD_CAT_ID":45445,"ELEMENT_SET_NO":999,"REV_AT_EPOCH":29440,"BSTAR":-0.0005192,"MEAN_MOTION_DOT":-1.71e-06,"MEAN_MOTION_DDOT":0.0},{"OBJECT_NAME":"ONEWEB-0068","OBJECT_ID":"2020-020Y","EPOCH":"2026-04-15T05:00:14.819040","MEAN_MOTION":13.11416288,"ECCENTRICITY":0.0001964,"INCLINATION":87.8926,"RA_OF_ASC_NODE":33.578,"ARG_OF_PERICENTER":83.5512,"MEAN_ANOMALY":276.5839,"EPHEMERIS_TYPE":0,"CLASSIFICATION_TYPE":"U","NORAD_CAT_ID":45446,"ELEMENT_SET_NO":999,"REV_AT_EPOCH":29434,"BSTAR":-0.0013505000000000001,"MEAN_MOTION_DOT":-4.66e-06,"MEAN_MOTION_DDOT":0.0},{"OBJECT_NAME":"ONEWEB-0046","OBJECT_ID":"2020-020Z","EPOCH":"2026-04-15T04:48:14.090976","MEAN_MOTION":13.11414859,"ECCENTRICITY":0.0001703,"INCLINATION":87.8922,"RA_OF_ASC_NODE":33.5865,"ARG_OF_PERICENTER":85.5325,"MEAN_ANOMALY":274.5997,"EPHEMERIS_TYPE":0,"CLASSIFICATION_TYPE":"U","NORAD_CAT_ID":45447,"ELEMENT_SET_NO":999,"REV_AT_EPOCH":29435,"BSTAR":-0.0009285200000000001,"MEAN_MOTION_DOT":-3.16e-06,"MEAN_MOTION_DDOT":0.0},{"OBJECT_NAME":"ONEWEB-0063","OBJECT_ID":"2020-020AA","EPOCH":"2026-04-15T05:29:44.602080","MEAN_MOTION":13.11418191,"ECCENTRICITY":0.0001621,"INCLINATION":87.8927,"RA_OF_ASC_NODE":33.5784,"ARG_OF_PERICENTER":81.1203,"MEAN_ANOMALY":279.0109,"EPHEMERIS_TYPE":0,"CLASSIFICATION_TYPE":"U","NORAD_CAT_ID":45448,"ELEMENT_SET_NO":999,"REV_AT_EPOCH":29444,"BSTAR":0.00020929,"MEAN_MOTION_DOT":8.7e-07,"MEAN_MOTION_DDOT":0.0},{"OBJECT_NAME":"ONEWEB-0019","OBJECT_ID":"2020-020AB","EPOCH":"2026-04-15T06:25:42.216672","MEAN_MOTION":13.11414552,"ECCENTRICITY":0.0001931,"INCLINATION":87.8919,"RA_OF_ASC_NODE":33.5613,"ARG_OF_PERICENTER":74.4023,"MEAN_ANOMALY":285.7318,"EPHEMERIS_TYPE":0,"CLASSIFICATION_TYPE":"U","NORAD_CAT_ID":45449,"ELEMENT_SET_NO":999,"REV_AT_EPOCH":29429,"BSTAR":0.00021737999999999998,"MEAN_MOTION_DOT":9e-07,"MEAN_MOTION_DDOT":0.0}]